SCD 1                   
1 22490U 93009B   26180.92934374  .00000428  00000+0  65876-4 0  9995
2 22490  24.9684 128.8985 0041629 272.8435 136.6640 14.46123593762960
TECHSAT 1B (GO-32)      
1 25397U 98043D   26181.48079174  .00000061  00000+0  46516-4 0  9990
2 25397  99.0072 174.5750 0001700 138.6209 221.5098 14.24430945453220
SCD 2                   
1 25504U 98060A   26181.77941757  .00000385  00000+0  56432-4 0  9993
2 25504  24.9967 348.3375 0016533 266.8289 222.9757 14.45530802462296
DLR-TUBSAT              
1 25757U 99029B   26181.79590385  .00000098  00000+0  35856-4 0  9996
2 25757  98.6701 177.7479 0013314 312.2386  47.7679 14.52430195435228
TERRA                   
1 25994U 99068A   26181.79482046  .00000404  00000+0  91177-4 0  9995
2 25994  97.9449 230.8012 0002613 152.6121 333.6122 14.61113696411597
MAROC-TUBSAT            
1 27004U 01056D   26181.51164394 -.00000030  00000+0  18682-4 0  9998
2 27004  99.8087 358.6226 0020570 108.4018 320.3548 13.70263063228013
AQUA                    
1 27424U 02022A   26181.86991671  .00000764  00000+0  16162-3 0  9995
2 27424  98.4284 151.4267 0000696  74.9809 306.6103 14.62178349285278
SHIYAN-1 (SY-1)         
1 28220U 04012A   26181.62184494  .00013246  00000+0  40373-3 0  9992
2 28220  97.8690 260.5656 0004447 342.4850  17.6237 15.34097000213157
AURA                    
1 28376U 04026A   26181.81723139  .00000767  00000+0  16488-3 0  9999
2 28376  98.3423 138.3839 0001164  84.9001 275.2332 14.61349098168202
IRS-P5 (CARTOSAT-1)     
1 28649U 05017A   26181.49986011  .00001364  00000+0  14294-3 0  9994
2 28649  97.5305 203.9605 0002156  64.6226 295.5216 14.91083876145800
SINAH 1                 
1 28893U 05043D   26181.79031672  .00000318  00000+0  69858-4 0  9996
2 28893  98.2878 316.1935 0013458 230.2877 129.7140 14.64166716102517
RESURS-DK 1             
1 29228U 06021A   26181.78460793  .00002178  00000+0  12821-3 0  9998
2 29228  69.9341 304.3547 0006695 285.3513  74.6913 15.13271968104633
ARIRANG-2 (KOMPSAT-2)   
1 29268U 06031A   26181.83138523  .00000342  00000+0  72737-4 0  9996
2 29268  97.8303   5.6179 0015423  34.8755  89.1531 14.64668379 63475
LAPAN-TUBSAT            
1 29709U 07001A   26181.85658171 -.00000187  00000+0 -14776-4 0  9990
2 29709  98.1340 181.3889 0012963 135.9851 224.2398 14.85961669 53187
HAIYANG-1B              
1 31113U 07010A   26181.42963344  .00000091  00000+0  50222-4 0  9994
2 31113  98.3501 162.7616 0013892 157.0891 203.0915 14.31030131  2537
COSMO-SKYMED 1          
1 31598U 07023A   26181.83631997  .00001986  00000+0  17706-3 0  9999
2 31598  97.8855  13.8074 0001517  84.0744 276.0650 14.97169648 31830
TERRASAR-X              
1 31698U 07026A   26181.62885468  .00000511  00000+0  27537-4 0  9991
2 31698  97.4453 189.1447 0001922  88.4966 271.6489 15.19151223 55265
WORLDVIEW-1 (WV-1)      
1 32060U 07041A   26181.81482313  .00006645  00000+0  27386-3 0  9990
2 32060  97.3895 301.3642 0001051 318.1457  41.9700 15.24414368 44950
YAOGAN-3                
1 32289U 07055A   26181.88679266  .00001525  00000+0  16056-3 0  9994
2 32289  97.8144 211.6284 0001600  79.3800 280.7599 14.90829238  7910
COSMO-SKYMED 2          
1 32376U 07059A   26181.79816936  .00000386  00000+0  55048-4 0  9991
2 32376  97.8888   5.1987 0001342  89.5676 270.5691 14.82156327  4027
RADARSAT-2              
1 32382U 07061A   26181.89204128 -.00000227  00000+0 -71116-4 0  9996
2 32382  98.5773 188.6281 0001309  84.4029 275.7302 14.29979658967911
CARTOSAT-2A             
1 32783U 08021A   26181.84573828  .00000806  00000+0  11506-3 0  9996
2 32783  97.7629 230.0878 0013286  69.3816 290.8820 14.79259343980829
HUANJING 1A (HJ-1A)     
1 33320U 08041A   26181.85399020  .00001298  00000+0  16146-3 0  9998
2 33320  97.6681 167.1638 0020668  93.0490 267.3090 14.84017703960433
HUANJING 1B (HJ-1B)     
1 33321U 08041B   26181.89676356  .00000198  00000+0  30116-4 0  9995
2 33321  97.6518 170.3353 0037252 136.3827 224.0343 14.83338468960440
GEOEYE 1                
1 33331U 08042A   26181.74645860  .00000457  00000+0  94897-4 0  9991
2 33331  98.1335 255.5110 0005010  31.0752 329.0746 14.64638223952137
THEOS                   
1 33396U 08049A   26181.84864646  .00000134  00000+0  82759-4 0  9991
2 33396  98.5569 238.6883 0001128  81.8560 278.2745 14.20135186919900
COSMO-SKYMED 3          
1 33412U 08054A   26181.88775950  .00002778  00000+0  18940-3 0  9995
2 33412  97.8266  40.6856 0014740 216.5320 143.4902 15.07032613959001
YAOGAN-4                
1 33446U 08061A   26181.38971803  .00001066  00000+0  13690-3 0  9996
2 33446  97.9309 114.8027 0015085  32.8748 327.3401 14.83225724947629
GOSAT (IBUKI)           
1 33492U 09002A   26181.77478986 -.00000059  00000+0 -19586-5 0  9995
2 33492  98.0904 292.6868 0001216  80.5142 279.6200 14.67536972933454
DEIMOS-1                
1 35681U 09041A   26181.88736598  .00000763  00000+0  11979-3 0  9994
2 35681  97.7412 338.5213 0002356 112.2860 247.8600 14.75252491908909
